{
    "links": {
        "self": "http://www.neowsapp.com/rest/v1/neo/3878621?api_key=iIulBulltgU6a56xZRHN4H3l9WmuAYTsLGpBGhQ2"
    },
    "id": "3878621",
    "neo_reference_id": "3878621",
    "name": "(2019 TP5)",
    "designation": "2019 TP5",
    "nasa_jpl_url": "http://ssd.jpl.nasa.gov/sbdb.cgi?sstr=3878621",
    "absolute_magnitude_h": 25.2,
    "estimated_diameter": {
        "kilometers": {
            "estimated_diameter_min": 0.0242412481,
            "estimated_diameter_max": 0.0542050786
        },
        "meters": {
            "estimated_diameter_min": 24.2412481101,
            "estimated_diameter_max": 54.2050786336
        },
        "miles": {
            "estimated_diameter_min": 0.0150628086,
            "estimated_diameter_max": 0.0336814639
        },
        "feet": {
            "estimated_diameter_min": 79.5316564495,
            "estimated_diameter_max": 177.8381901842
        }
    },
    "is_potentially_hazardous_asteroid": false,
    "close_approach_data": [
        {
            "close_approach_date": "1910-03-31",
            "close_approach_date_full": "1910-Mar-31 14:58",
            "epoch_date_close_approach": -1885712520000,
            "relative_velocity": {
                "kilometers_per_second": "18.7281183494",
                "kilometers_per_hour": "67421.2260579084",
                "miles_per_hour": "41892.9279358154"
            },
            "miss_distance": {
                "astronomical": "0.0479862715",
                "lunar": "18.6666596135",
                "kilometers": "7178644.005641705",
                "miles": "4460602.544217329"
            },
            "orbiting_body": "Earth"
        },
        {
            "close_approach_date": "2019-10-18",
            "close_approach_date_full": "2019-Oct-18 07:38",
            "epoch_date_close_approach": 1571384280000,
            "relative_velocity": {
                "kilometers_per_second": "18.564115727",
                "kilometers_per_hour": "66830.8166171356",
                "miles_per_hour": "41526.0704696863"
            },
            "miss_distance": {
                "astronomical": "0.0210211078",
                "lunar": "8.1772109342",
                "kilometers": "3144712.951920386",
                "miles": "1954034.0185618868"
            },
            "orbiting_body": "Earth"
        }
    ],
    "orbital_data": {
        "orbit_id": "5",
        "orbit_determination_date": "2019-12-04 07:20:13",
        "first_observation_date": "2019-10-07",
        "last_observation_date": "2019-10-17",
        "data_arc_in_days": 10,
        "observations_used": 41,
        "orbit_uncertainty": "8",
        "minimum_orbit_intersection": ".00532144",
        "jupiter_tisserand_invariant": "3.639",
        "epoch_osculation": "2458766.5",
        "eccentricity": ".662452336454921",
        "semi_major_axis": "1.895253860521628",
        "inclination": "8.789567784604131",
        "ascending_node_longitude": "204.9867016213026",
        "orbital_period": "953.0145073754526",
        "perihelion_distance": ".6397385124438666",
        "perihelion_argument": "262.1375160571256",
        "aphelion_distance": "3.150769208599389",
        "perihelion_time": "2458821.686984104186",
        "mean_anomaly": "339.1531879905791",
        "mean_motion": ".3777487091895583",
        "equinox": "J2000",
        "orbit_class": {
            "orbit_class_type": "APO",
            "orbit_class_description": "Near-Earth asteroid orbits which cross the Earth’s orbit similar to that of 1862 Apollo",
            "orbit_class_range": "a (semi-major axis) > 1.0 AU; q (perihelion) < 1.017 AU"
        }
    },
    "is_sentry_object": false
}